[{"OBJECT_NAME":"IRIDIUM 102","OBJECT_ID":"2017-003D","EPOCH":"2026-03-09T16:58:10.285536","MEAN_MOTION":14.3421763,"ECCENTRICITY":0.00022591,"INCLINATION":86.3971,"RA_OF_ASC_NODE":130.0382,"ARG_OF_PERICENTER":95.9369,"MEAN_ANOMALY":264.2084,"EPHEMERIS_TYPE":0,"CLASSIFICATION_TYPE":"U","NORAD_CAT_ID":41920,"ELEMENT_SET_NO":999,"REV_AT_EPOCH":47902,"BSTAR":3.634738e-6,"MEAN_MOTION_DOT":3.0e-7,"MEAN_MOTION_DDOT":0},{"OBJECT_NAME":"FENGYUN 1C DEB","OBJECT_ID":"1999-025AHE","EPOCH":"2026-03-09T15:57:06.798528","MEAN_MOTION":14.54464676,"ECCENTRICITY":0.00996532,"INCLINATION":102.3226,"RA_OF_ASC_NODE":131.2975,"ARG_OF_PERICENTER":192.2216,"MEAN_ANOMALY":167.6546,"EPHEMERIS_TYPE":0,"CLASSIFICATION_TYPE":"U","NORAD_CAT_ID":30492,"ELEMENT_SET_NO":999,"REV_AT_EPOCH":98157,"BSTAR":0.0036440374,"MEAN_MOTION_DOT":0.00016533,"MEAN_MOTION_DDOT":0}]
